[
  {
    "name": "STARLINK-5266",
    "noradId": "55290",
    "line1": "1 55290U 23010X   26181.75006506  .00000081  00000+0  14573-4 0  9996",
    "line2": "2 55290  70.0002  99.4262 0003047 257.6981 102.3837 14.98331215190209"
  },
  {
    "name": "STARLINK-5327",
    "noradId": "55291",
    "line1": "1 55291U 23010Y   26181.16592312  .00000108  00000+0  16881-4 0  9991",
    "line2": "2 55291  69.9999 100.9989 0003061 264.9347  95.1462 14.98331374190118"
  },
  {
    "name": "STARLINK-5325",
    "noradId": "55292",
    "line1": "1 55292U 23010Z   26181.20346602 -.00002012  00000+0 -16088-3 0  9992",
    "line2": "2 55292  69.9997 100.7283 0002772 267.7204  92.3638 14.98331140190129"
  },
  {
    "name": "STARLINK-5287",
    "noradId": "55293",
    "line1": "1 55293U 23010AA  26181.74171810  .00000368  00000+0  38623-4 0  9999",
    "line2": "2 55293  70.0000  99.3967 0002817 273.8191  86.2645 14.98327959190205"
  },
  {
    "name": "STARLINK-5286",
    "noradId": "55294",
    "line1": "1 55294U 23010AB  26181.81288428  .00000829  00000+0  77264-4 0  9998",
    "line2": "2 55294  69.9992 119.1087 0003688 265.2478  94.8260 14.98338883189728"
  },
  {
    "name": "STARLINK-5293",
    "noradId": "55295",
    "line1": "1 55295U 23010AC  26181.25377524  .00000311  00000+0  33882-4 0  9997",
    "line2": "2 55295  70.0000 120.7736 0003554 262.9478  97.1277 14.98331350189644"
  },
  {
    "name": "STARLINK-5285",
    "noradId": "55296",
    "line1": "1 55296U 23010AD  26181.19094042  .00000325  00000+0  35043-4 0  9998",
    "line2": "2 55296  69.9998 100.6843 0003075 266.4364  93.6443 14.98332397191006"
  },
  {
    "name": "STARLINK-5284",
    "noradId": "55297",
    "line1": "1 55297U 23010AE  26181.73336956 -.00004860  00000+0 -39962-3 0  9995",
    "line2": "2 55297  69.9999  99.3663 0003011 274.3458  85.7357 14.98350041190207"
  },
  {
    "name": "STARLINK-5270",
    "noradId": "55299",
    "line1": "1 55299U 23010AG  26181.18676615  .00000403  00000+0  41588-4 0  9990",
    "line2": "2 55299  70.0000 100.6719 0003163 269.2713  90.8084 14.98332156191008"
  },
  {
    "name": "STARLINK-5308",
    "noradId": "55300",
    "line1": "1 55300U 23010AH  26181.78343251 -.00001671  00000+0 -13235-3 0  9993",
    "line2": "2 55300  69.9990  99.1456 0002844 267.6897  92.3936 14.98322096190213"
  },
  {
    "name": "STARLINK-5321",
    "noradId": "55302",
    "line1": "1 55302U 23010AK  26181.19512198  .00001760  00000+0  15520-3 0  9994",
    "line2": "2 55302  70.0000 100.6963 0002991 269.0707  91.0110 14.98338698190125"
  },
  {
    "name": "STARLINK-5322",
    "noradId": "55303",
    "line1": "1 55303U 23010AL  26181.80034961 -.00001191  00000+0 -92023-4 0  9994",
    "line2": "2 55303  69.9977 119.0638 0003368 272.7236  87.3537 14.98331760189724"
  },
  {
    "name": "STARLINK-5318",
    "noradId": "55304",
    "line1": "1 55304U 23010AM  26181.77925939  .00000140  00000+0  19535-4 0  9993",
    "line2": "2 55304  70.0000  99.1252 0003346 260.9705  99.1075 14.98330216190210"
  },
  {
    "name": "STARLINK-5316",
    "noradId": "55305",
    "line1": "1 55305U 23010AN  26181.77511279 -.00000101  00000+0 -70848-6 0  9997",
    "line2": "2 55305  69.9997  99.5160 0002828 271.5480  88.5355 14.98327379190216"
  },
  {
    "name": "STARLINK-5295",
    "noradId": "55306",
    "line1": "1 55306U 23010AP  26181.14482377 -.00003886  00000+0 -31797-3 0  9995",
    "line2": "2 55306  70.0000  81.0522 0002523 270.5464  89.5405 14.98347311190615"
  },
  {
    "name": "STARLINK-5288",
    "noradId": "55307",
    "line1": "1 55307U 23010AQ  26181.68306905  .00001852  00000+0  16287-3 0  9993",
    "line2": "2 55307  70.0002  79.7216 0002950 267.0253  93.0568 14.98343337190695"
  },
  {
    "name": "STARLINK-5315",
    "noradId": "55309",
    "line1": "1 55309U 23010AS  26181.16567127  .00000315  00000+0  34208-4 0  9990",
    "line2": "2 55309  69.9995  80.7234 0002967 269.8902  90.1917 14.98332018190629"
  },
  {
    "name": "STARLINK-5309",
    "noradId": "55310",
    "line1": "1 55310U 23010AT  26181.67056022  .00000152  00000+0  20530-4 0  9997",
    "line2": "2 55310  69.9999  79.6751 0002899 270.1259  89.9568 14.98330743190698"
  },
  {
    "name": "STARLINK-5312",
    "noradId": "55311",
    "line1": "1 55311U 23010AU  26181.14066654  .00001639  00000+0  14512-3 0  9995",
    "line2": "2 55311  70.0000  81.0369 0002709 273.1362  86.9487 14.98338786191485"
  },
  {
    "name": "STARLINK-5296",
    "noradId": "55312",
    "line1": "1 55312U 23010AV  26181.11141566  .00001357  00000+0  12148-3 0  9999",
    "line2": "2 55312  69.9999  80.8221 0002766 271.3511  88.7331 14.98343540191463"
  },
  {
    "name": "STARLINK-5313",
    "noradId": "55313",
    "line1": "1 55313U 23010AW  26181.72897453  .00000031  00000+0  10394-4 0  9990",
    "line2": "2 55313  69.9999  79.4775 0002848 269.9683  90.1149 14.98327761191579"
  },
  {
    "name": "STARLINK-5305",
    "noradId": "55314",
    "line1": "1 55314U 23010AX  26181.13230759  .00000049  00000+0  11882-4 0  9998",
    "line2": "2 55314  70.0000  81.0053 0002848 270.2956  89.7876 14.98329051191487"
  },
  {
    "name": "STARLINK-4623",
    "noradId": "55315",
    "line1": "1 55315U 23010AY  26181.21181042  .00001654  00000+0  14641-3 0  9996",
    "line2": "2 55315  69.9996 100.7576 0003217 271.8276  88.2514 14.98321086190113"
  },
  {
    "name": "STARLINK-5257",
    "noradId": "55316",
    "line1": "1 55316U 23010AZ  26181.10310406  .00002941  00000+0  25423-3 0  9993",
    "line2": "2 55316  69.9991  80.9205 0003134 268.1011  91.9789 14.98322574191480"
  },
  {
    "name": "STARLINK-5265",
    "noradId": "55317",
    "line1": "1 55317U 23010BA  26181.72480073  .00000386  00000+0  40176-4 0  9994",
    "line2": "2 55317  69.9998  79.4904 0002827 265.1239  94.9598 14.98327442191574"
  },
  {
    "name": "STARLINK-5180",
    "noradId": "55318",
    "line1": "1 55318U 23010BB  26181.11978774  .00001442  00000+0  12865-3 0  9995",
    "line2": "2 55318  69.9998  80.9631 0002880 269.2126  90.8703 14.98320784191483"
  },
  {
    "name": "STARLINK-5196",
    "noradId": "55319",
    "line1": "1 55319U 23010BC  26181.11561063 -.00000460  00000+0 -30783-4 0  9996",
    "line2": "2 55319  69.9999  80.9492 0002880 269.4389  90.6440 14.98330400191485"
  },
  {
    "name": "STARLINK-5492",
    "noradId": "55331",
    "line1": "1 55331U 23013A   26181.61980528  .00000873  00000+0  41262-4 0  9999",
    "line2": "2 55331  43.0058  25.7287 0001727 271.1906  88.8748 15.27577236190023"
  },
  {
    "name": "STARLINK-5491",
    "noradId": "55332",
    "line1": "1 55332U 23013B   26181.57292453  .00011388  00000+0  42316-3 0  9991",
    "line2": "2 55332  43.0049  11.5051 0001494 245.0190 115.0506 15.27544347189101"
  },
  {
    "name": "STARLINK-5493",
    "noradId": "55333",
    "line1": "1 55333U 23013C   26181.62751674  .00000804  00000+0  38747-4 0  9998",
    "line2": "2 55333  43.0072  25.7865 0001940 274.6778  85.3853 15.27575173188940"
  }
]