OBJECT_NAME,OBJECT_ID,EPOCH,MEAN_MOTION,ECCENTRICITY,INCLINATION,RA_OF_ASC_NODE,ARG_OF_PERICENTER,MEAN_ANOMALY,EPHEMERIS_TYPE,CLASSIFICATION_TYPE,NORAD_CAT_ID,ELEMENT_SET_NO,REV_AT_EPOCH,BSTAR,MEAN_MOTION_DOT,MEAN_MOTION_DDOT
STARLINK-5266,2023-010X,2026-06-30T18:00:05.621184,14.98331215,.0003047,70.0002,99.4262,257.6981,102.3837,0,U,55290,999,19020,.14573E-4,.81E-6,0
STARLINK-5327,2023-010Y,2026-06-30T03:58:55.757568,14.98331374,.00030612,69.9999,100.9989,264.9347,95.1462,0,U,55291,999,19011,.16881357E-4,.108E-5,0
STARLINK-5325,2023-010Z,2026-06-30T04:52:59.464128,14.98331140,.00027729,69.9997,100.7283,267.7204,92.3638,0,U,55292,999,19012,-.16087525E-3,-.2012E-4,0
STARLINK-5287,2023-010AA,2026-06-30T17:48:04.443840,14.98327959,.0002817,70.0000,99.3967,273.8191,86.2645,0,U,55293,999,19020,.38623E-4,.368E-5,0
STARLINK-5286,2023-010AB,2026-06-30T19:30:33.201792,14.98338883,.0003688,69.9992,119.1087,265.2478,94.8260,0,U,55294,999,18972,.77264E-4,.829E-5,0
STARLINK-5293,2023-010AC,2026-06-30T06:05:26.180736,14.98331350,.00035546,70.0000,120.7736,262.9478,97.1277,0,U,55295,999,18964,.33882039E-4,.311E-5,0
STARLINK-5285,2023-010AD,2026-06-30T04:34:57.252288,14.98332397,.00030757,69.9998,100.6843,266.4364,93.6443,0,U,55296,999,19100,.35043224E-4,.325E-5,0
STARLINK-5284,2023-010AE,2026-06-30T17:36:03.129984,14.98350041,.0003011,69.9999,99.3663,274.3458,85.7357,0,U,55297,999,19020,-.39962E-3,-.486E-4,0
STARLINK-5270,2023-010AG,2026-06-30T04:28:56.595360,14.98332156,.00031637,70.0000,100.6719,269.2713,90.8084,0,U,55299,999,19100,.41588012E-4,.403E-5,0
STARLINK-5308,2023-010AH,2026-06-30T18:48:08.568864,14.98322096,.0002844,69.9990,99.1456,267.6897,92.3936,0,U,55300,999,19021,-.13235E-3,-.1671E-4,0
STARLINK-5321,2023-010AK,2026-06-30T04:40:58.539072,14.98338698,.00029911,70.0000,100.6963,269.0707,91.0110,0,U,55302,999,19012,.15519948E-3,.176E-4,0
STARLINK-5322,2023-010AL,2026-06-30T19:12:30.206304,14.98331760,.0003368,69.9977,119.0638,272.7236,87.3537,0,U,55303,999,18972,-.92023E-4,-.1191E-4,0
STARLINK-5318,2023-010AM,2026-06-30T18:42:08.011296,14.98330216,.0003346,70.0000,99.1252,260.9705,99.1075,0,U,55304,999,19021,.19535E-4,.14E-5,0
STARLINK-5316,2023-010AN,2026-06-30T18:36:09.745056,14.98327379,.0002828,69.9997,99.5160,271.5480,88.5355,0,U,55305,999,19021,-.70848E-6,-.101E-5,0
STARLINK-5295,2023-010AP,2026-06-30T03:28:32.773728,14.98347311,.00025233,70.0000,81.0522,270.5464,89.5405,0,U,55306,999,19061,-.31796512E-3,-.3886E-4,0
STARLINK-5288,2023-010AQ,2026-06-30T16:23:37.165920,14.98343337,.000295,70.0002,79.7216,267.0253,93.0568,0,U,55307,999,19069,.16287E-3,.1852E-4,0
STARLINK-5315,2023-010AS,2026-06-30T03:58:33.997728,14.98332018,.00029671,69.9995,80.7234,269.8902,90.1917,0,U,55309,999,19062,.34207955E-4,.315E-5,0
STARLINK-5309,2023-010AT,2026-06-30T16:05:36.403008,14.98330743,.0002899,69.9999,79.6751,270.1259,89.9568,0,U,55310,999,19069,.2053E-4,.152E-5,0
STARLINK-5312,2023-010AU,2026-06-30T03:22:33.589056,14.98338786,.00027095,70.0000,81.0369,273.1362,86.9487,0,U,55311,999,19148,.14511718E-3,.1639E-4,0
STARLINK-5296,2023-010AV,2026-06-30T02:40:26.313024,14.98343540,.00027661,69.9999,80.8221,271.3511,88.7331,0,U,55312,999,19146,.12148465E-3,.1357E-4,0
STARLINK-5313,2023-010AW,2026-06-30T17:29:43.399392,14.98327761,.0002848,69.9999,79.4775,269.9683,90.1149,0,U,55313,999,19157,.10394E-4,.31E-6,0
STARLINK-5305,2023-010AX,2026-06-30T03:10:31.375776,14.98329051,.00028481,70.0000,81.0053,270.2956,89.7876,0,U,55314,999,19148,.11882411E-4,.49E-6,0
STARLINK-4623,2023-010AY,2026-06-30T05:05:00.420288,14.98321086,.00032172,69.9996,100.7576,271.8276,88.2514,0,U,55315,999,19011,.1464108E-3,.1654E-4,0
STARLINK-5257,2023-010AZ,2026-06-30T02:28:28.190784,14.98322574,.00031343,69.9991,80.9205,268.1011,91.9789,0,U,55316,999,19148,.25423167E-3,.2941E-4,0
STARLINK-5265,2023-010BA,2026-06-30T17:23:42.783072,14.98327442,.0002827,69.9998,79.4904,265.1239,94.9598,0,U,55317,999,19157,.40176E-4,.386E-5,0
STARLINK-5180,2023-010BB,2026-06-30T02:52:29.660736,14.98320784,.00028808,69.9998,80.9631,269.2126,90.8703,0,U,55318,999,19148,.12864811E-3,.1442E-4,0
STARLINK-5196,2023-010BC,2026-06-30T02:46:28.758432,14.98330400,.00028808,69.9999,80.9492,269.4389,90.6440,0,U,55319,999,19148,-.30782757E-4,-.46E-5,0
STARLINK-5492,2023-013A,2026-06-30T14:52:31.176192,15.27577236,.0001727,43.0058,25.7287,271.1906,88.8748,0,U,55331,999,19002,.41262E-4,.873E-5,0
STARLINK-5491,2023-013B,2026-06-30T13:45:00.679392,15.27544347,.0001494,43.0049,11.5051,245.0190,115.0506,0,U,55332,999,18910,.42316E-3,.11388E-3,0
STARLINK-5493,2023-013C,2026-06-30T15:03:37.446336,15.27575173,.000194,43.0072,25.7865,274.6778,85.3853,0,U,55333,999,18894,.38747E-4,.804E-5,0
